STARLINK-5893           
1 55952U 23037AQ  23085.25001157 -.01040654  31387-3 -37628-2 0  9995
2 55952  69.9998 157.5823 0008439 233.7767 119.5099 15.88345535  1853
STARLINK-5889           
1 55953U 23037AR  23085.25001157 -.01040866  31393-3 -37673-2 0  9998
2 55953  69.9998 157.5830 0008443 238.6014 114.1753 15.88325495  1857
STARLINK-5892           
1 55954U 23037AS  23085.25001157 -.01040147  31389-3 -37424-2 0  9990
2 55954  69.9998 157.5791 0008450 237.0374 118.8209 15.88445063  1855
STARLINK-5878           
1 55955U 23037AT  23085.25001157 -.01040143  31373-3 -37517-2 0  9993
2 55955  69.9998 157.5808 0008495 240.8791 113.7242 15.88394286  1850
STARLINK-5883           
1 55956U 23037AU  23085.25001157 -.01040022  31388-3 -37383-2 0  9997
2 55956  69.9998 157.5785 0008420 236.6259 119.7380 15.88465135  1856
STARLINK-5884           
1 55957U 23037AV  23085.25001157 -.01030837  30852-3 -37144-2 0  9991
2 55957  69.9996 157.5808 0010458 228.2373 126.0776 15.88380626  1850
STARLINK-5928           
1 55958U 23037AW  23085.25001157 -.01040682  31407-3 -37518-2 0  9993
2 55958  69.9998 157.5803 0008424 237.7234 117.1120 15.88405335  1858
STARLINK-5929           
1 55959U 23037AX  23085.25001157 -.01039081  31320-3 -37441-2 0  9994
2 55959  69.9995 157.5797 0008447 239.8298 115.2540 15.88415134  1859
STARLINK-5938           
1 55960U 23037AY  23085.25001157 -.01040598  31426-3 -37366-2 0  9994
2 55960  69.9997 157.5774 0008431 236.0513 120.8426 15.88485374  1858
STARLINK-5933           
1 55961U 23037AZ  23085.25001157 -.01039625  31363-3 -37385-2 0  9995
2 55961  69.9996 157.5783 0008460 239.9862 116.1118 15.88455721  1858
STARLINK-5906           
1 55962U 23037BA  23085.25001157 -.01040142  31386-3 -37442-2 0  9991
2 55962  69.9998 157.5793 0008433 235.7666 119.8200 15.88435522  1857
STARLINK-5924           
1 55963U 23037BB  23085.25001157 -.01040150  31383-3 -37460-2 0  9998
2 55963  69.9998 157.5798 0008469 234.5361 120.7970 15.88425455  1850
STARLINK-5895           
1 55964U 23037BC  23085.25001157 -.01032204  30922-3 -37176-2 0  9992
2 55964  70.0005 157.5815 0011913 222.4093 131.3628 15.88361723  1854
STARLINK-5894           
1 55965U 23037BD  23085.25001157 -.01040227  31402-3 -37372-2 0  9999
2 55965  69.9998 157.5783 0008455 236.5015 120.1417 15.88474555  1854
FALCON 9 DEB            
1 55966U 23037BE  23084.63985501  .01941601  40891-5  10301-2 0  9996
2 55966  69.9814 159.0234 0049954 150.0080 210.4019 16.16591874  1421
FALCON 9 DEB            
1 55967U 23037BF  23084.57390159  .02047858  41067-5  10573-2 0  9998
2 55967  69.9842 159.1972 0042248 153.0674 207.2753 16.17803402  1416
FALCON 9 DEB            
1 55968U 23037BG  23084.62862002  .02536368  41303-5  10468-2 0  9991
2 55968  69.9864 158.9888 0037977 146.1689 214.1967 16.20973265  1420
FALCON 9 DEB            
1 55969U 23037BH  23084.62936717  .02333293  41186-5  10013-2 0  9994
2 55969  69.9864 158.9908 0041688 150.3678 209.9919 16.20117495  1427
SES-18                  
1 55970U 23038A   23083.67384855 -.00000169  00000+0  00000+0 0  9999
2 55970  15.1276 357.3162 5847644 181.0226 271.5530  2.00498341   234
SES-19                  
1 55971U 23038B   23083.69938324 -.00000167  00000+0  00000+0 0  9996
2 55971  15.7042 357.1717 5984346 180.9198 259.2107  2.02859372   200
2023-038C               
1 55972U 23038C   23084.84182674  .00010324  00000+0  28591-2 0  9997
2 55972  26.9196 354.7412 5921280 185.5157 162.7878  4.14060102   421
2023-039A               
1 55973U 23039A   23085.39378262  .00006686  00000+0  32588-3 0  9998
2 55973  97.4171 236.0278 0010965 238.5533 205.5773 15.18608868   615
2023-039B               
1 55974U 23039B   23085.39329699  .00008957  00000+0  43293-3 0  9997
2 55974  97.4093 236.0243 0010736 242.6563 201.4548 15.18802736   600
2023-039C               
1 55975U 23039C   23085.39300118  .00007020  00000+0  33912-3 0  9990
2 55975  97.4141 236.0281 0009844 244.6753 199.4398 15.18910125   597
2023-039D               
1 55976U 23039D   23085.39210348  .00007871  00000+0  37608-3 0  9996
2 55976  97.4151 236.0296 0010321 254.4102 189.6255 15.19248141   590
COSMOS 2567             
1 55978U 23040A   23084.93439907 -.00000097  00000+0  00000+0 0  9999
2 55978  97.6354 339.1729 0066845  62.5883   2.2615 15.37609894   418
SL-4 R/B                
1 55979U 23040B   23085.44340230  .00053063  00000+0  72007-3 0  9997
2 55979  97.6430 339.7583 0113698  64.7431 349.6311 15.50085737   498
2023-041A               
1 55981U 23041A   23085.29133204 -.00000275  00000+0  00000+0 0  9993
2 55981  42.0174 243.7518 0008178 310.5698  49.7750 15.38165631   296
2023-041B               
1 55982U 23041B   23084.90172499 -.00000274  00000+0  00000+0 0  9999
2 55982  42.0179 246.0200 0007512 296.5372  63.4403 15.37772458   231
2023-041C               
1 55983U 23041C   23084.90122155 -.00000276  00000+0  00000+0 0  9996
2 55983  42.0187 246.0179 0008605 282.6585  77.3503 15.38301402   235
2023-041D               
1 55984U 23041D   23085.49899989  .00996266  36508-3  25649-2 0  9995
2 55984  41.9714 241.7809 0145180  30.2475 330.1547 15.78765152   336
2023-041E               
1 55985U 23041E   23085.48039556  .02551918  75774-5  12921-2 0  9993
2 55985  42.0177 241.6663 0166804 275.0893  83.2130 15.95533221   320
